{
  "type": "FeatureCollection",
  "features": [
    {
      "type": "Feature",
      "properties": {},
      "geometry": {
        "type": "Polygon",
        "coordinates": [
          [
            [
              81.2403517,
              18.6584773
            ],
            [
              81.2357091,
              18.6596221
            ],
            [
              81.2347599,
              18.6627639
            ],
            [
              81.2306899,
              18.6629946
            ],
            [
              81.2281432,
              18.6622263
            ],
            [
              81.2257785,
              18.6610501
            ],
            [
              81.226117,
              18.659351
            ],
            [
              81.2289709,
              18.6542583
            ],
            [
              81.2289997,
              18.6482639
            ],
            [
              81.239048,
              18.6448894
            ],
            [
              81.243277,
              18.6500112
            ],
            [
              81.2407333,
              18.6575735
            ],
            [
              81.2403517,
              18.6584773
            ]
          ]
        ]
      }
    }
  ]
}